FENGYUN 1C DEB
1 29958U 99025KG  21312.82547703  .00000201  00000-0  13135-3 0  9992
2 29958  98.7996 343.5811 0056837 267.2018  92.2648 14.12127682763385
FENGYUN 1C DEB
1 29959U 99025KH  21312.89970337 -.00000109  00000-0 -40120-4 0  9997
2 29959  98.9945 350.1891 0042806 185.7697 350.4039 14.04843165759449
FENGYUN 1C DEB
1 29960U 99025KJ  21312.52348558  .00000255  00000-0  15341-3 0  9999
2 29960  98.6012 334.9209 0095350 248.8026 266.5299 14.12812048763204
FENGYUN 1C DEB
1 29961U 99025KK  21312.77523482  .00000111  00000-0  66930-4 0  9990
2 29961  99.0968 134.0494 0075640 285.7159  73.5685 14.24473129770155
FENGYUN 1C DEB
1 29962U 99025KL  21312.83930238  .00000277  00000-0  18425-3 0  9997
2 29962  98.8686 339.7567 0113113 101.0773  72.6087 14.05814641759852
FENGYUN 1C DEB
1 29963U 99025KM  21312.76547022  .00000510  00000-0  24188-3 0  9998
2 29963  99.0951 123.9555 0053180 281.8852  89.8820 14.23438582768382
FENGYUN 1C DEB
1 29964U 99025KN  21313.08225832  .00000270  00000-0  20329-3 0  9993
2 29964  98.4380 252.7816 0142510 145.0282 216.0345 13.96844188754212
FENGYUN 1C DEB
1 29965U 99025KP  21312.82834262 -.00000140  00000-0 -66335-4 0  9994
2 29965  98.9677 329.9276 0146646 212.5726 321.5562 13.94689892754312
FENGYUN 1C DEB
1 29966U 99025KQ  21312.91634897  .00000300  00000-0  15919-3 0  9994
2 29966  99.4353  27.7868 0041235 253.4114 106.2530 14.21425799767933
FENGYUN 1C DEB
1 29967U 99025KR  21311.43319380  .00001608  00000-0  87938-3 0  9990
2 29967  98.9710   5.4733 0088130 232.1720 141.5649 14.11465342760428
FENGYUN 1C DEB
1 29968U 99025KS  21312.82266098 -.00000127  00000-0 -49472-4 0  9991
2 29968  98.7751 326.7382 0090767 237.8445 296.2276 14.05874731760351
FENGYUN 1C DEB
1 29969U 99025KT  21311.62818918  .00001368  00000-0  67813-3 0  9997
2 29969  98.8639  11.5521 0051851  58.0002  96.8525 14.18184189763703
FENGYUN 1C DEB
1 29970U 99025KU  21312.85506955  .00000396  00000-0  14179-3 0  9997
2 29970  98.9094 173.7032 0100813 299.9388  70.3155 14.37120602776111
FENGYUN 1C DEB
1 29971U 99025KV  21312.81896595  .00000616  00000-0  36030-3 0  9991
2 29971  98.8711 357.5024 0026737 111.7149 308.2915 14.11808367762078
FENGYUN 1C DEB
1 29972U 99025KW  21312.49133300  .00000926  00000-0  27155-3 0  9996
2 29972  98.8459 217.8072 0093328 208.7148 327.6450 14.43951150777962
FENGYUN 1C DEB
1 29973U 99025KX  21312.81888559  .00000479  00000-0  33601-3 0  9992
2 29973  98.8738 331.8804 0063443   5.2134 169.6594 14.02033603757435
FENGYUN 1C DEB
1 29974U 99025KY  21313.15966464  .00000619  00000-0  40021-3 0  9993
2 29974  98.9735  28.5988 0049354 323.7911  65.6571 14.06039783758792
FENGYUN 1C DEB
1 29975U 99025KZ  21312.47350688 -.00000106  00000-0 -40681-4 0  9999
2 29975  99.3947 298.3237 0115643 117.1611  33.9414 13.97056707755520
FENGYUN 1C DEB
1 29976U 99025LA  21312.80303377  .00000254  00000-0  15744-3 0  9993
2 29976  98.9451 332.6178 0275831  43.9711 130.4138 13.95737830754688
FENGYUN 1C DEB
1 29977U 99025LB  21313.14680520  .00000828  00000-0  56523-3 0  9997
2 29977  98.4375 266.0008 0136338 142.7634 231.5849 13.97827867754483
FENGYUN 1C DEB
1 29978U 99025LC  21312.74975303  .00000104  00000-0  10768-3 0  9997
2 29978  99.2754 350.1942 0076982 169.7714 255.4613 13.95216068754658
FENGYUN 1C DEB
1 29979U 99025LD  21312.73811387  .00000371  00000-0  17700-3 0  9997
2 29979  98.5537  12.5074 0114000 205.9092 230.6952 14.21511677768077
FENGYUN 1C DEB
1 29980U 99025LE  21312.90512704 -.00000104  00000-0 -37856-4 0  9990
2 29980  98.6396 181.8584 0089232 150.2041 224.0688 14.05090435760030
FENGYUN 1C DEB
1 29982U 99025LG  21312.69367175  .00000889  00000-0  19041-3 0  9991
2 29982  99.3913 277.5593 0147437 106.9408  65.6479 14.55220040784805
FENGYUN 1C DEB
1 29983U 99025LH  21312.63145133  .00003938  00000-0  77792-3 0  9999
2 29983  99.1701  91.9823 0073224 168.4131 205.4360 14.61384722781963
FENGYUN 1C DEB
1 29985U 99025LK  21312.73073369  .00000011  00000-0  30797-4 0  9997
2 29985  98.8520 343.6124 0029724 119.0421 305.8461 14.09919772762799
FENGYUN 1C DEB
1 29986U 99025LL  21312.34166743  .00001333  00000-0  70399-3 0  9993
2 29986  99.3943 259.9818 0027325 263.9028 248.3561 14.15565919762666
FENGYUN 1C DEB
1 29987U 99025LM  21312.20333757  .00001427  00000-0  96496-3 0  9990
2 29987  98.9380 205.4227 0094843  89.6440  60.8588 13.99768829753625
FENGYUN 1C DEB
1 29988U 99025LN  21312.95717080  .00001353  00000-0  51111-3 0  9991
2 29988  98.7933  20.7777 0178718 105.8384 307.5372 14.24489837766510
FENGYUN 1C DEB
1 29989U 99025LP  21312.81462545  .00000087  00000-0  62236-4 0  9994
2 29989  98.5822 323.3266 0126823 159.9277  14.6006 14.14128625764727
FENGYUN 1C DEB
1 29991U 99025LR  21313.06519987  .00002595  00000-0  10003-2 0  9997
2 29991 102.2012 245.2438 0007435 124.7403 248.4231 14.31721419768208
FENGYUN 1C DEB
1 29992U 99025LS  21313.01123069 -.00000008  00000-0  18070-4 0  9997
2 29992  98.7377 330.1428 0090793  91.3026 299.0024 14.10767630763191
FENGYUN 1C DEB
1 29993U 99025LT  21312.88449486  .00000100  00000-0  85063-4 0  9994
2 29993  98.9965 351.1553 0039466 189.7014 170.3397 14.07502243761373
FENGYUN 1C DEB
1 29994U 99025LU  21312.93240920  .00000396  00000-0  26786-3 0  9996
2 29994  99.0329 355.4900 0139351  48.9889  73.1728 14.01356311757823
FENGYUN 1C DEB
1 29996U 99025LW  21312.46728641  .00001108  00000-0  76445-3 0  9996
2 29996  99.3161 294.2126 0147260 229.3407 283.8911 13.96337848751882
FENGYUN 1C DEB
1 29997U 99025LX  21312.93590458  .00000075  00000-0  81795-4 0  9999
2 29997  98.9849 342.4025 0080977 141.6103 337.5598 13.97289575755027
FENGYUN 1C DEB
1 29998U 99025LY  21312.57807388  .00000681  00000-0  34452-3 0  9993
2 29998  99.2994 261.1760 0004283 242.5257 117.5482 14.19799852766033
FENGYUN 1C DEB
1 29999U 99025LZ  21313.02968375  .00000263  00000-0  12693-3 0  9998
2 29999  98.5460 332.6827 0199622 121.1485 270.8663 14.16108572765492
TITAN 3C TRANSTAGE DEB
1 30000U 68081J   21312.72499965  .00000068  00000-0  00000-0 0  9990
2 30000   2.9145 309.1142 0120922  11.7151 192.6569  1.00906320 62274
FENGYUN 1C DEB
1 30001U 99025MA  21312.76349277  .00001548  00000-0  78955-3 0  9998
2 30001  99.0321 331.6210 0053938  79.9804 336.6305 14.16463281761456
FENGYUN 1C DEB
1 30003U 99025MC  21313.09473562  .00000176  00000-0  18276-3 0  9998
2 30003  99.3980 251.6345 0146411 123.9448 304.7117 13.83757320748157
FENGYUN 1C DEB
1 30004U 99025MD  21312.64678284  .00000628  00000-0  37383-3 0  9999
2 30004  99.0950  76.3667 0041316 223.3735 150.9308 14.10797521761878
FENGYUN 1C DEB
1 30005U 99025ME  21313.06623113  .00000478  00000-0  57416-3 0  9990
2 30005  99.2896 356.8467 0358722 262.1115  93.9169 13.47602836727998
FENGYUN 1C DEB
1 30007U 99025MG  21312.75067427  .00001056  00000-0  57548-3 0  9996
2 30007  99.2779 133.6918 0074353 279.7794 143.8871 14.13138358761691
FENGYUN 1C DEB
1 30008U 99025MH  21312.31546514  .00001508  00000-0  50189-3 0  9994
2 30008  99.3786  84.6567 0062490 289.6001  99.9619 14.38243029774207
FENGYUN 1C DEB
1 30009U 99025MJ  21312.91699391  .00000281  00000-0  21753-3 0  9995
2 30009  99.1518 353.6507 0078999 131.1888 229.6123 13.99404947755426
FENGYUN 1C DEB
1 30010U 99025MK  21312.64016899  .00000091  00000-0  58329-4 0  9992
2 30010  98.9363  83.8240 0074720 185.2033 189.0726 14.23519935769806
FENGYUN 1C DEB
1 30012U 99025MM  21312.83343928  .00000093  00000-0  11508-3 0  9990
2 30012  99.6131 317.2260 0138433 144.4558 341.0609 13.84464625748545
FENGYUN 1C DEB
1 30013U 99025MN  21312.64120118  .00000179  00000-0  18150-3 0  9999
2 30013  99.4913 277.0647 0130755  55.4008 118.1602 13.86374298749550
FENGYUN 1C DEB
1 30015U 99025MQ  21313.04496118  .00000558  00000-0  26380-3 0  9997
2 30015  99.1185 225.2193 0044217  96.0807 277.1781 14.23429344768770
FENGYUN 1C DEB
1 30016U 99025MR  21312.43303668  .00001387  00000-0  40444-3 0  9995
2 30016  98.8622 209.4984 0083269 262.7518 154.1226 14.43882190777004
FENGYUN 1C DEB
1 30017U 99025MS  21312.58727314  .00000365  00000-0  67253-4 0  9993
2 30017  98.6968 253.7897 0233875  75.1739 287.5238 14.55995838786542
FENGYUN 1C DEB
1 30018U 99025MT  21312.34493535  .00000792  00000-0  16045-3 0  9999
2 30018  98.7873 270.9176 0150573 128.1420  33.7887 14.57481435785645
FENGYUN 1C DEB
1 30019U 99025MU  21312.66211637  .00002020  00000-0  67356-3 0  9993
2 30019  98.1154 307.7854 0189268 284.7921  73.2361 14.28978117766902
FENGYUN 1C DEB
1 30020U 99025MV  21312.85610703  .00000123  00000-0  96062-4 0  9992
2 30020  98.9108 335.0990 0186980 277.7392 260.1622 14.01018206757056
FENGYUN 1C DEB
1 30021U 99025MW  21312.89189880 -.00000272  00000-0 -14155-3 0  9993
2 30021  98.8170 327.5098 0074041 150.9310 328.8410 14.04091004759493
FENGYUN 1C DEB
1 30022U 99025MX  21312.66192564  .00000031  00000-0  34014-4 0  9990
2 30022  99.0105  94.8275 0067494 227.5297 145.3362 14.22352014769349
FENGYUN 1C DEB
1 30023U 99025MY  21312.66591083  .00000388  00000-0  25166-3 0  9992
2 30023  99.1687  83.6553 0048898 268.2005 106.1406 14.08227481761313
FENGYUN 1C DEB
1 30024U 99025MZ  21312.77762740  .00003313  00000-0  18257-3 0  9999
2 30024  98.6682 143.2098 0171414 217.5035 141.4130 15.03191194803377
FENGYUN 1C DEB
1 30025U 99025NA  21312.59988560  .00009549  00000-0  45329-3 0  9997
2 30025  98.3026 256.8071 0164175 301.6753  56.8552 15.08301996800234
FENGYUN 1C DEB
1 30026U 99025NB  21312.88402269  .00005455  00000-0  35560-3 0  9995
2 30026  99.1486 349.5708 0105681  33.3221 327.4594 15.03920750798685
FENGYUN 1C DEB
1 30028U 99025ND  21312.85201613  .00000408  00000-0  10011-3 0  9991
2 30028  98.1541 335.8118 0200335 145.7402  28.2416 14.46026913780631
FENGYUN 1C DEB
1 30030U 99025NF  21313.07632446  .00001730  00000-0  29036-3 0  9997
2 30030  99.7188 172.0582 0112256 157.8408 202.7699 14.67376604787017
